{
  "type": "FeatureCollection",
  "features": [
    {
      "type": "Feature",
      "properties": {
        "norad_id": 33412,
        "name": "COSMO-SKYMED 3",
        "group": "resource",
        "lat": 45.43858754280966,
        "lon": 33.98810860292076,
        "alt_km": 534.7181228187956,
        "timestamp": "2025-12-21T09:37:22.305060+00:00",
        "meta_object_name": "COSMO-SKYMED 3",
        "meta_object_id": "2008-054A",
        "meta_epoch": "2025-12-21T04:14:40.651296",
        "meta_mean_motion": 15.05423997,
        "meta_eccentricity": 0.0016948,
        "meta_inclination": 97.8463,
        "meta_ra_of_asc_node": 205.7108,
        "meta_arg_of_pericenter": 143.6996,
        "meta_mean_anomaly": 216.5383,
        "meta_ephemeris_type": 0,
        "meta_classification_type": "U",
        "meta_norad_cat_id": 33412,
        "meta_element_set_no": 999,
        "meta_rev_at_epoch": 93014,
        "meta_bstar": 0.00013871,
        "meta_mean_motion_dot": 1.931e-05,
        "meta_mean_motion_ddot": 0,
        "tle_line1": "1 33412U 08054A   25355.17685939  .00001931  00000+0  13871-3 0  9994",
        "tle_line2": "2 33412  97.8463 205.7108 0016948 143.6996 216.5383 15.05423997930141"
      },
      "geometry": {
        "type": "Point",
        "coordinates": [
          33.98810860292076,
          45.43858754280966
        ]
      }
    },
    {
      "type": "Feature",
      "properties": {
        "norad_id": 33446,
        "name": "YAOGAN-4",
        "group": "resource",
        "lat": 50.80122795285954,
        "lon": 115.2427719936139,
        "alt_km": 624.9956071247752,
        "timestamp": "2025-12-21T09:37:22.305070+00:00",
        "meta_object_name": "YAOGAN-4",
        "meta_object_id": "2008-061A",
        "meta_epoch": "2025-12-20T07:07:49.061568",
        "meta_mean_motion": 14.82702731,
        "meta_eccentricity": 0.00131175,
        "meta_inclination": 97.9192,
        "meta_ra_of_asc_node": 284.3224,
        "meta_arg_of_pericenter": 296.7402,
        "meta_mean_anomaly": 63.2469,
        "meta_ephemeris_type": 0,
        "meta_classification_type": "U",
        "meta_norad_cat_id": 33446,
        "meta_element_set_no": 999,
        "meta_rev_at_epoch": 91915,
        "meta_bstar": 0.000123707,
        "meta_mean_motion_dot": 9.46e-06,
        "meta_mean_motion_ddot": 0,
        "tle_line1": "1 33446U 08061A   25354.29709562  .00000946  00000+0  12371-3 0  9999",
        "tle_line2": "2 33446  97.9192 284.3224 0013117 296.7402  63.2469 14.82702731919157"
      },
      "geometry": {
        "type": "Point",
        "coordinates": [
          115.2427719936139,
          50.80122795285954
        ]
      }
    },
    {
      "type": "Feature",
      "properties": {
        "norad_id": 33492,
        "name": "GOSAT (IBUKI)",
        "group": "resource",
        "lat": 67.36504531278474,
        "lon": 83.97226781492901,
        "alt_km": 661.7776663657105,
        "timestamp": "2025-12-21T09:37:22.305081+00:00",
        "meta_object_name": "GOSAT (IBUKI)",
        "meta_object_id": "2009-002A",
        "meta_epoch": "2025-12-21T04:24:05.321088",
        "meta_mean_motion": 14.67540045,
        "meta_eccentricity": 9.89e-05,
        "meta_inclination": 98.0772,
        "meta_ra_of_asc_node": 103.6694,
        "meta_arg_of_pericenter": 101.732,
        "meta_mean_anomaly": 258.3996,
        "meta_ephemeris_type": 0,
        "meta_classification_type": "U",
        "meta_norad_cat_id": 33492,
        "meta_element_set_no": 999,
        "meta_rev_at_epoch": 90535,
        "meta_bstar": 0.00010945,
        "meta_mean_motion_dot": 5.73e-06,
        "meta_mean_motion_ddot": 0,
        "tle_line1": "1 33492U 09002A   25355.18339492  .00000573  00000+0  10945-3 0  9997",
        "tle_line2": "2 33492  98.0772 103.6694 0000989 101.7320 258.3996 14.67540045905355"
      },
      "geometry": {
        "type": "Point",
        "coordinates": [
          83.97226781492901,
          67.36504531278474
        ]
      }
    },
    {
      "type": "Feature",
      "properties": {
        "norad_id": 35681,
        "name": "DEIMOS-1",
        "group": "resource",
        "lat": 16.995919332578396,
        "lon": 153.22613192847797,
        "alt_km": 644.6265531666404,
        "timestamp": "2025-12-21T09:37:22.305092+00:00",
        "meta_object_name": "DEIMOS-1",
        "meta_object_id": "2009-041A",
        "meta_epoch": "2025-12-21T04:39:39.172896",
        "meta_mean_motion": 14.74963113,
        "meta_eccentricity": 0.0002586,
        "meta_inclination": 97.7146,
        "meta_ra_of_asc_node": 155.4037,
        "meta_arg_of_pericenter": 66.2933,
        "meta_mean_anomaly": 293.8548,
        "meta_ephemeris_type": 0,
        "meta_classification_type": "U",
        "meta_norad_cat_id": 35681,
        "meta_element_set_no": 999,
        "meta_rev_at_epoch": 88064,
        "meta_bstar": 3.3542e-05,
        "meta_mean_motion_dot": 1.78e-06,
        "meta_mean_motion_ddot": 0,
        "tle_line1": "1 35681U 09041A   25355.19420339  .00000178  00000+0  33542-4 0  9994",
        "tle_line2": "2 35681  97.7146 155.4037 0002586  66.2933 293.8548 14.74963113880648"
      },
      "geometry": {
        "type": "Point",
        "coordinates": [
          153.22613192847797,
          16.995919332578396
        ]
      }
    },
    {
      "type": "Feature",
      "properties": {
        "norad_id": 35682,
        "name": "DUBAISAT-1",
        "group": "resource",
        "lat": -57.479606374990354,
        "lon": 138.66333575490142,
        "alt_km": 647.2648859967767,
        "timestamp": "2025-12-21T09:37:22.305103+00:00",
        "meta_object_name": "DUBAISAT-1",
        "meta_object_id": "2009-041B",
        "meta_epoch": "2025-12-20T20:51:31.286304",
        "meta_mean_motion": 14.74624249,
        "meta_eccentricity": 0.0009246,
        "meta_inclination": 97.9798,
        "meta_ra_of_asc_node": 125.4295,
        "meta_arg_of_pericenter": 285.257,
        "meta_mean_anomaly": 74.7616,
        "meta_ephemeris_type": 0,
        "meta_classification_type": "U",
        "meta_norad_cat_id": 35682,
        "meta_element_set_no": 999,
        "meta_rev_at_epoch": 87881,
        "meta_bstar": 0.0001417,
        "meta_mean_motion_dot": 8.95e-06,
        "meta_mean_motion_ddot": 0,
        "tle_line1": "1 35682U 09041B   25354.86911211  .00000895  00000+0  14170-3 0  9993",
        "tle_line2": "2 35682  97.9798 125.4295 0009246 285.2570  74.7616 14.74624249878819"
      },
      "geometry": {
        "type": "Point",
        "coordinates": [
          138.66333575490142,
          -57.479606374990354
        ]
      }
    },
    {
      "type": "Feature",
      "properties": {
        "norad_id": 35931,
        "name": "OCEANSAT-2",
        "group": "resource",
        "lat": -55.12529863120468,
        "lon": 7.095345765223594,
        "alt_km": 899.7160355330534,
        "timestamp": "2025-12-21T09:37:22.305113+00:00",
        "meta_object_name": "OCEANSAT-2",
        "meta_object_id": "2009-051A",
        "meta_epoch": "2025-12-21T04:44:32.189856",
        "meta_mean_motion": 13.99623009,
        "meta_eccentricity": 0.0015999,
        "meta_inclination": 98.2217,
        "meta_ra_of_asc_node": 354.94,
        "meta_arg_of_pericenter": 22.8847,
        "meta_mean_anomaly": 337.3029,
        "meta_ephemeris_type": 0,
        "meta_classification_type": "U",
        "meta_norad_cat_id": 35931,
        "meta_element_set_no": 999,
        "meta_rev_at_epoch": 85443,
        "meta_bstar": -5.4518e-05,
        "meta_mean_motion_dot": -1.17e-06,
        "meta_mean_motion_ddot": 0,
        "tle_line1": "1 35931U 09051A   25355.19759479 -.00000117  00000+0 -54518-4 0  9994",
        "tle_line2": "2 35931  98.2217 354.9400 0015999  22.8847 337.3029 13.99623009854434"
      },
      "geometry": {
        "type": "Point",
        "coordinates": [
          7.095345765223594,
          -55.12529863120468
        ]
      }
    },
    {
      "type": "Feature",
      "properties": {
        "norad_id": 35946,
        "name": "WORLDVIEW-2 (WV-2)",
        "group": "resource",
        "lat": 7.587460123793424,
        "lon": -112.49500390926559,
        "alt_km": 769.818615731896,
        "timestamp": "2025-12-21T09:37:22.305124+00:00",
        "meta_object_name": "WORLDVIEW-2 (WV-2)",
        "meta_object_id": "2009-055A",
        "meta_epoch": "2025-12-21T03:48:50.536800",
        "meta_mean_motion": 14.37727343,
        "meta_eccentricity": 0.0004891,
        "meta_inclination": 98.4778,
        "meta_ra_of_asc_node": 66.1279,
        "meta_arg_of_pericenter": 50.0355,
        "meta_mean_anomaly": 310.1261,
        "meta_ephemeris_type": 0,
        "meta_classification_type": "U",
        "meta_norad_cat_id": 35946,
        "meta_element_set_no": 999,
        "meta_rev_at_epoch": 85006,
        "meta_bstar": 5.2702e-05,
        "meta_mean_motion_dot": 1.15e-06,
        "meta_mean_motion_ddot": 0,
        "tle_line1": "1 35946U 09055A   25355.15891825  .00000115  00000+0  52702-4 0  9991",
        "tle_line2": "2 35946  98.4778  66.1279 0004891  50.0355 310.1261 14.37727343850067"
      },
      "geometry": {
        "type": "Point",
        "coordinates": [
          -112.49500390926559,
          7.587460123793424
        ]
      }
    }
  ]
}